IRIDIUM 116             
1 43072U 17083C   24147.87781399  .00000303  00000+0  10102-3 0  9997
2 43072  86.3946 275.9716 0002163  95.5522 264.5921 14.34217243336485
IRIDIUM 130             
1 43073U 17083D   24147.84610220  .00000384  00000+0  13019-3 0  9998
2 43073  86.3956 276.1873 0002108  93.5886 266.5551 14.34216692336426
IRIDIUM 151             
1 43074U 17083E   24148.44864917  .00000029  00000+0  31903-5 0  9990
2 43074  86.3948 275.7735 0002382  91.7305 268.4163 14.34216610336532
IRIDIUM 134             
1 43075U 17083F   24148.06808685  .00000027  00000+0  25860-5 0  9992
2 43075  86.3950 275.9311 0001917  96.9511 263.1903 14.34221076336443
IRIDIUM 137             
1 43076U 17083G   24148.42961785  .00000279  00000+0  92594-4 0  9990
2 43076  86.3955 275.8574 0002578  99.4162 260.7325 14.34220018336562
IRIDIUM 141             
1 43077U 17083H   24148.42327810  .00000053  00000+0  11977-4 0  9992
2 43077  86.3949 275.7333 0002091  90.3598 269.7838 14.34216577336564
IRIDIUM 153             
1 43078U 17083J   24148.51499298  .00000451  00000+0  15411-3 0  9991
2 43078  86.3987 244.1478 0002144  82.5874 277.5566 14.34216402337682
IRIDIUM 131             
1 43079U 17083K   24148.06175379  .00000461  00000+0  15740-3 0  9999
2 43079  86.3954 276.0202 0002425  94.6575 265.4898 14.34218858336444
